{
  "type": "FeatureCollection",
  "metadata": {
    "source": "SVG floorplan",
    "viewBox": {
      "x": 0.0,
      "y": 0.0,
      "width": 675.59,
      "height": 307.14
    },
    "units": "pixels",
    "coordinate_system": "bottom-left origin, +x right, +y up (Cartesian)",
    "feature_counts": {
      "boundaries": 1,
      "obstacles": 13
    }
  },
  "features": [
    {
      "type": "Feature",
      "id": 0,
      "geometry": {
        "type": "Polygon",
        "coordinates": [
          [
            [
              675.59,
              0.0
            ],
            [
              0.0,
              0.0
            ],
            [
              0.0,
              307.14
            ],
            [
              675.59,
              307.14
            ],
            [
              675.59,
              0.0
            ]
          ]
        ]
      },
      "properties": {
        "type": "boundary",
        "id": 0,
        "group": "boundary",
        "point_count": 4
      }
    },
    {
      "type": "Feature",
      "id": 1,
      "geometry": {
        "type": "Polygon",
        "coordinates": [
          [
            [
              134.26,
              193.98
            ],
            [
              89.67999999999999,
              193.98
            ],
            [
              89.67999999999999,
              237.98999999999998
            ],
            [
              134.26,
              237.98999999999998
            ],
            [
              134.26,
              193.98
            ]
          ]
        ]
      },
      "properties": {
        "type": "obstacle",
        "id": 1,
        "group": "objects",
        "point_count": 4
      }
    },
    {
      "type": "Feature",
      "id": 2,
      "geometry": {
        "type": "Polygon",
        "coordinates": [
          [
            [
              255.58,
              271.77
            ],
            [
              199.94,
              271.77
            ],
            [
              199.94,
              302.7
            ],
            [
              255.57999999999998,
              302.7
            ],
            [
              255.57999999999998,
              271.77
            ],
            [
              255.58,
              271.77
            ]
          ]
        ]
      },
      "properties": {
        "type": "obstacle",
        "id": 2,
        "group": "objects",
        "point_count": 5
      }
    },
    {
      "type": "Feature",
      "id": 3,
      "geometry": {
        "type": "Polygon",
        "coordinates": [
          [
            [
              390.26,
              277.56
            ],
            [
              335.05,
              277.56
            ],
            [
              335.05,
              302.03
            ],
            [
              390.26,
              302.03
            ],
            [
              390.26,
              277.56
            ]
          ]
        ]
      },
      "properties": {
        "type": "obstacle",
        "id": 3,
        "group": "objects",
        "point_count": 4
      }
    },
    {
      "type": "Feature",
      "id": 4,
      "geometry": {
        "type": "Polygon",
        "coordinates": [
          [
            [
              497.27,
              276.41999999999996
            ],
            [
              433.72999999999996,
              276.41999999999996
            ],
            [
              433.72999999999996,
              302.5
            ],
            [
              497.27,
              302.5
            ],
            [
              497.27,
              276.41999999999996
            ]
          ]
        ]
      },
      "properties": {
        "type": "obstacle",
        "id": 4,
        "group": "objects",
        "point_count": 4
      }
    },
    {
      "type": "Feature",
      "id": 5,
      "geometry": {
        "type": "Polygon",
        "coordinates": [
          [
            [
              554.69,
              175.35
            ],
            [
              515.6700000000001,
              175.35
            ],
            [
              515.6700000000001,
              214.37
            ],
            [
              554.69,
              214.37
            ],
            [
              554.69,
              175.35
            ]
          ]
        ]
      },
      "properties": {
        "type": "obstacle",
        "id": 5,
        "group": "objects",
        "point_count": 4
      }
    },
    {
      "type": "Feature",
      "id": 6,
      "geometry": {
        "type": "Polygon",
        "coordinates": [
          [
            [
              671.04,
              131.83999999999997
            ],
            [
              644.13,
              131.83999999999997
            ],
            [
              644.13,
              182.10999999999999
            ],
            [
              671.04,
              182.10999999999999
            ],
            [
              671.04,
              131.83999999999997
            ]
          ]
        ]
      },
      "properties": {
        "type": "obstacle",
        "id": 6,
        "group": "objects",
        "point_count": 4
      }
    },
    {
      "type": "Feature",
      "id": 7,
      "geometry": {
        "type": "Polygon",
        "coordinates": [
          [
            [
              246.32,
              106.77999999999997
            ],
            [
              197.23,
              106.77999999999997
            ],
            [
              197.23,
              155.86999999999998
            ],
            [
              246.32,
              155.86999999999998
            ],
            [
              246.32,
              106.77999999999997
            ]
          ]
        ]
      },
      "properties": {
        "type": "obstacle",
        "id": 7,
        "group": "objects",
        "point_count": 4
      }
    },
    {
      "type": "Feature",
      "id": 8,
      "geometry": {
        "type": "Polygon",
        "coordinates": [
          [
            [
              436.34,
              130.11999999999998
            ],
            [
              386.21,
              130.11999999999998
            ],
            [
              386.21,
              178.12999999999997
            ],
            [
              436.34,
              178.12999999999997
            ],
            [
              436.34,
              130.11999999999998
            ]
          ]
        ]
      },
      "properties": {
        "type": "obstacle",
        "id": 8,
        "group": "objects",
        "point_count": 4
      }
    },
    {
      "type": "Feature",
      "id": 9,
      "geometry": {
        "type": "Polygon",
        "coordinates": [
          [
            [
              674.74,
              4.569999999999993
            ],
            [
              573.62,
              4.569999999999993
            ],
            [
              573.62,
              102.69999999999999
            ],
            [
              674.74,
              102.69999999999999
            ],
            [
              674.74,
              4.569999999999993
            ]
          ]
        ]
      },
      "properties": {
        "type": "obstacle",
        "id": 9,
        "group": "objects",
        "point_count": 4
      }
    },
    {
      "type": "Feature",
      "id": 10,
      "geometry": {
        "type": "Polygon",
        "coordinates": [
          [
            [
              574.69,
              4.589999999999975
            ],
            [
              548.75,
              4.589999999999975
            ],
            [
              548.75,
              32.22999999999996
            ],
            [
              574.69,
              32.22999999999996
            ],
            [
              574.69,
              4.589999999999975
            ]
          ]
        ]
      },
      "properties": {
        "type": "obstacle",
        "id": 10,
        "group": "objects",
        "point_count": 4
      }
    },
    {
      "type": "Feature",
      "id": 11,
      "geometry": {
        "type": "Polygon",
        "coordinates": [
          [
            [
              474.93,
              0.9199999999999591
            ],
            [
              441.46000000000004,
              0.9199999999999591
            ],
            [
              441.46000000000004,
              19.989999999999952
            ],
            [
              474.93000000000006,
              19.989999999999952
            ],
            [
              474.93000000000006,
              0.9199999999999591
            ],
            [
              474.93,
              0.9199999999999591
            ]
          ]
        ]
      },
      "properties": {
        "type": "obstacle",
        "id": 11,
        "group": "objects",
        "point_count": 5
      }
    },
    {
      "type": "Feature",
      "id": 12,
      "geometry": {
        "type": "Polygon",
        "coordinates": [
          [
            [
              372.62,
              6.189999999999998
            ],
            [
              298.11,
              6.189999999999998
            ],
            [
              298.11,
              31.470000000000027
            ],
            [
              372.62,
              31.470000000000027
            ],
            [
              372.62,
              6.190000000000055
            ],
            [
              372.62,
              6.189999999999998
            ]
          ]
        ]
      },
      "properties": {
        "type": "obstacle",
        "id": 12,
        "group": "objects",
        "point_count": 5
      }
    },
    {
      "type": "Feature",
      "id": 13,
      "geometry": {
        "type": "Polygon",
        "coordinates": [
          [
            [
              117.56,
              0.6499999999999773
            ],
            [
              62.21,
              0.6499999999999773
            ],
            [
              62.21,
              25.21999999999997
            ],
            [
              117.56,
              25.21999999999997
            ],
            [
              117.56,
              0.6499999999999773
            ]
          ]
        ]
      },
      "properties": {
        "type": "obstacle",
        "id": 13,
        "group": "objects",
        "point_count": 4
      }
    }
  ]
}